norad_id,name,regime,epoch,line1,line2,inclination,eccentricity,mean_motion,raan,arg_pericenter,mean_anomaly
19789,COSMOS 1998,LEO,19275.57088665,1 19789U 89009E   19275.57088665 +.00000002 +00000-0 -45497-4 0 0001,2 19789 082.6068 095.0581 0017312 101.4847 258.8191 12.6486111441432,82.6068,0.0017312,12.64861114,95.0581,101.4847,258.8191
19789,COSMOS 1998,LEO,19276.91558077,1 19789U 89009E   19276.91558077 +.00000013 +00000-0 +10022-4 0 0001,2 19789 082.6069 094.1993 0017310 098.6553 261.6501 12.6486115841449,82.6069,0.001731,12.64861158,94.1993,98.6553,261.6501
19789,COSMOS 1998,LEO,19277.54837799,1 19789U 89009E   19277.54837799  .00000019  00000-0  46124-4 0  3746,2 19789  82.6069  93.7952 0017318  97.2868 263.0194 12.64861193414760,82.6069,0.0017318,12.64861193,93.7952,97.2868,263.0194
19789,COSMOS 1998,LEO,19277.86477661,1 19789U 89009E   19277.86477661 +.00000030 +00000-0 +10268-3 0 0001,2 19789 082.6069 093.5931 0017324 096.6137 263.6928 12.6486121941461,82.6069,0.0017324,12.64861219,93.5931,96.6137,263.6928
19789,COSMOS 1998,LEO,19278.89307197,1 19789U 89009E   19278.89307197 +.00000034 +00000-0 +12260-3 0 0001,2 19789 082.6070 092.9364 0017309 094.4455 265.8616 12.6486122741474,82.607,0.0017309,12.64861227,92.9364,94.4455,265.8616
19789,COSMOS 1998,LEO,19279.84226768,1 19789U 89009E   19279.84226768  .00000041  00000-0  16097-3 0  3750,2 19789  82.6071  92.3302 0017319  92.4125 267.8950 12.64861261415052,82.6071,0.0017319,12.64861261,92.3302,92.4125,267.895
19789,COSMOS 1998,LEO,19279.92136731,1 19789U 89009E   19279.92136731 +.00000041 +00000-0 +16335-3 0 0001,2 19789 082.6071 092.2797 0017318 092.2402 268.0674 12.6486126941487,82.6071,0.0017318,12.64861269,92.2797,92.2402,268.0674
19789,COSMOS 1998,LEO,19280.87056289,1 19789U 89009E   19280.87056289 +.00000038 +00000-0 +14901-3 0 0001,2 19789 082.6072 091.6735 0017310 090.2138 270.0938 12.6486125841499,82.6072,0.001731,12.64861258,91.6735,90.2138,270.0938
19789,COSMOS 1998,LEO,19281.89885798,1 19789U 89009E   19281.89885798 +.00000039 +00000-0 +15360-3 0 0001,2 19789 082.6073 091.0168 0017310 088.0263 272.2811 12.6486131541512,82.6073,0.001731,12.64861315,91.0168,88.0263,272.2811
19789,COSMOS 1998,LEO,19281.97795759,1 19789U 89009E   19281.97795759  .00000039  00000-0  14971-3 0  3765,2 19789  82.6073  90.9663 0017309  87.8541 272.4533 12.64861320415322,82.6073,0.0017309,12.6486132,90.9663,87.8541,272.4533
19789,COSMOS 1998,LEO,19282.92715299,1 19789U 89009E   19282.92715299 +.00000032 +00000-0 +11484-3 0 0001,2 19789 082.6074 090.3601 0017307 085.8322 274.4748 12.6486130941525,82.6074,0.0017307,12.64861309,90.3601,85.8322,274.4748
19789,COSMOS 1998,LEO,19283.87634826,1 19789U 89009E   19283.87634826 +.00000024 +00000-0 +69719-4 0 0001,2 19789 082.6075 089.7540 0017301 083.7975 276.5088 12.6486132341537,82.6075,0.0017301,12.64861323,89.754,83.7975,276.5088
19789,COSMOS 1998,LEO,19284.50914509,1 19789U 89009E   19284.50914509  .00000012  00000-0  56076-5 0  3779,2 19789  82.6075  89.3499 0017294  82.4488 277.8568 12.64861302415649,82.6075,0.0017294,12.64861302,89.3499,82.4488,277.8568
19789,COSMOS 1998,LEO,19284.90464297,1 19789U 89009E   19284.90464297 +.00000009 +00000-0 -90315-5 0 0001,2 19789 082.6075 089.0975 0017257 081.5567 278.7481 12.6486123341550,82.6075,0.0017257,12.64861233,89.0975,81.5567,278.7481
19789,COSMOS 1998,LEO,19285.85383829,1 19789U 89009E   19285.85383829 +.00000006 +00000-0 -26395-4 0 0001,2 19789 082.6075 088.4914 0017268 079.5316 280.7721 12.6486121041562,82.6075,0.0017268,12.6486121,88.4914,79.5316,280.7721
19789,COSMOS 1998,LEO,19286.80303324,1 19789U 89009E   19286.80303324  .00000005  00000-0 -32847-4 0  3784,2 19789  82.6078  87.8850 0017273  77.5091 282.7933 12.64861352415936,82.6078,0.0017273,12.64861352,87.885,77.5091,282.7933
19789,COSMOS 1998,LEO,19286.88213283,1 19789U 89009E   19286.88213283 +.00000004 +00000-0 -36966-4 0 0001,2 19789 082.6078 087.8345 0017272 077.3365 282.9657 12.6486135541575,82.6078,0.0017272,12.64861355,87.8345,77.3365,282.9657
19789,COSMOS 1998,LEO,19287.91042746,1 19789U 89009E   19287.91042746 -.00000002 +00000-0 -71373-4 0 0001,2 19789 082.6079 087.1779 0017262 075.1379 285.1624 12.6486132241588,82.6079,0.0017262,12.64861322,87.1779,75.1379,285.1624
19789,COSMOS 1998,LEO,19288.85962244,1 19789U 89009E   19288.85962244 +.00000001 +00000-0 -54812-4 0 0001,2 19789 082.6081 086.5718 0017249 073.0799 287.2183 12.6486134641600,82.6081,0.0017249,12.64861346,86.5718,73.0799,287.2183
19789,COSMOS 1998,LEO,19288.93872199,1 19789U 89009E   19288.93872199  .00000002  00000-0 -45263-4 0  3795,2 19789  82.6081  86.5213 0017251  72.9272 287.3709 12.64861368416205,82.6081,0.0017251,12.64861368,86.5213,72.9272,287.3709
19789,COSMOS 1998,LEO,19289.80881738,1 19789U 89009E   19289.80881738 +.00000006 +00000-0 -25889-4 0 0001,2 19789 082.6082 085.9657 0017239 071.0610 289.2349 12.6486135641612,82.6082,0.0017239,12.64861356,85.9657,71.061,289.2349
19789,COSMOS 1998,LEO,19290.83711175,1 19789U 89009E   19290.83711175 +.00000018 +00000-0 +41375-4 0 0001,2 19789 082.6083 085.3090 0017212 068.8351 291.4578 12.6486142341625,82.6083,0.0017212,12.64861423,85.309,68.8351,291.4578
19789,COSMOS 1998,LEO,19291.39080872,1 19789U 89009E   19291.39080872  .00000021  00000-0  57363-4 0  3804,2 19789  82.6084  84.9555 0017200  67.6072 292.6841 12.64861448416511,82.6084,0.00172,12.64861448,84.9555,67.6072,292.6841
19789,COSMOS 1998,LEO,19291.70720702,1 19789U 89009E   19291.70720702 +.00000023 +00000-0 +67372-4 0 0001,2 19789 082.6085 084.7535 0017189 066.9433 293.3470 12.6486142941636,82.6085,0.0017189,12.64861429,84.7535,66.9433,293.347
19789,COSMOS 1998,LEO,19292.73550137,1 19789U 89009E   19292.73550137 +.00000036 +00000-0 +13459-3 0 0001,2 19789 082.6087 084.0970 0017171 064.7201 295.5669 12.6486146841649,82.6087,0.0017171,12.64861468,84.097,64.7201,295.5669
19789,COSMOS 1998,LEO,19293.36829778,1 19789U 89009E   19293.36829778 +.00000043 +00000-0 +17163-3 0 0001,2 19789 082.6088 083.6930 0017158 063.3489 296.9358 12.6486153841657,82.6088,0.0017158,12.64861538,83.693,63.3489,296.9358
19789,COSMOS 1998,LEO,19294.39659194,1 19789U 89009E   19294.39659194  .00000042  00000-0  16657-3 0  3810,2 19789  82.6089  83.0365 0017122  61.1203 299.1605 12.64861545416892,82.6089,0.0017122,12.64861545,83.0365,61.1203,299.1605
19789,COSMOS 1998,LEO,19294.87118921,1 19789U 89009E   19294.87118921 +.00000042 +00000-0 +17005-3 0 0001,2 19789 082.6090 082.7335 0017102 060.0740 300.2049 12.6486154441676,82.609,0.0017102,12.64861544,82.7335,60.074,300.2049
19789,COSMOS 1998,LEO,19295.89948326,1 19789U 89009E   19295.89948326 +.00000035 +00000-0 +13105-3 0 0001,2 19789 082.6092 082.0770 0017092 057.8801 302.3948 12.6486155941689,82.6092,0.0017092,12.64861559,82.077,57.8801,302.3948
19789,COSMOS 1998,LEO,19296.45317996,1 19789U 89009E   19296.45317996  .00000034  00000-0  12643-3 0  3823,2 19789  82.6093  81.7235 0017079  56.6786 303.5939 12.64861603417159,82.6093,0.0017079,12.64861603,81.7235,56.6786,303.5939
19789,COSMOS 1998,LEO,19296.92777716,1 19789U 89009E   19296.92777716 +.00000029 +00000-0 +98431-4 0 0001,2 19789 082.6094 081.4205 0017065 055.6599 304.6105 12.6486158941702,82.6094,0.0017065,12.64861589,81.4205,55.6599,304.6105
19789,COSMOS 1998,LEO,19297.87697148,1 19789U 89009E   19297.87697148 +.00000015 +00000-0 +24899-4 0 0001,2 19789 082.6096 080.8146 0017040 053.5916 306.6745 12.6486156241714,82.6096,0.001704,12.64861562,80.8146,53.5916,306.6745
19789,COSMOS 1998,LEO,19298.82616574,1 19789U 89009E   19298.82616574  .00000004  00000-0 -37818-4 0  3831,2 19789  82.6098  80.2086 0017010  51.5360 308.7255 12.64861552417442,82.6098,0.001701,12.64861552,80.2086,51.536,308.7255
19789,COSMOS 1998,LEO,19298.90526525,1 19789U 89009E   19298.90526525 +.00000003 +00000-0 -44698-4 0 0001,2 19789 082.6098 080.1581 0017007 051.3674 308.8938 12.6486155441727,82.6098,0.0017007,12.64861554,80.1581,51.3674,308.8938
19789,COSMOS 1998,LEO,19299.77535997,1 19789U 89009E   19299.77535997 -.00000003 +00000-0 -74878-4 0 0001,2 19789 082.6099 079.6026 0016984 049.4788 310.7781 12.6486153641738,82.6099,0.0016984,12.64861536,79.6026,49.4788,310.7781
19789,COSMOS 1998,LEO,19300.88275313,1 19789U 89009E   19300.88275313 -.00000007  00000-0 -96854-4 0  3843,2 19789  82.6101  78.8956 0016945  47.0431 313.2079 12.64861560417704,82.6101,0.0016945,12.6486156,78.8956,47.0431,313.2079
19789,COSMOS 1998,LEO,19301.91104679,1 19789U 89009E   19301.91104679 +.00000002 +00000-0 -49818-4 0 0001,2 19789 082.6103 078.2392 0016916 044.8258 315.4198 12.6486160141765,82.6103,0.0016916,12.64861601,78.2392,44.8258,315.4198
19789,COSMOS 1998,LEO,19302.86024087,1 19789U 89009E   19302.86024087 +.00000012 +00000-0 +78658-5 0 0001,2 19789 082.6105 077.6333 0016880 042.7437 317.4965 12.6486165241777,82.6105,0.001688,12.64861652,77.6333,42.7437,317.4965
19789,COSMOS 1998,LEO,19303.49303695,1 19789U 89009E   19303.49303695  .00000015  00000-0  21998-4 0  3853,2 19789  82.6106  77.2294 0016862  41.3559 318.8807 12.64861662418033,82.6106,0.0016862,12.64861662,77.2294,41.3559,318.8807
19789,COSMOS 1998,LEO,19303.88853452,1 19789U 89009E   19303.88853452 +.00000018 +00000-0 +41135-4 0 0001,2 19789 082.6107 076.9769 0016852 040.4632 319.7710 12.6486166041790,82.6107,0.0016852,12.6486166,76.9769,40.4632,319.771
19789,COSMOS 1998,LEO,19304.83772859,1 19789U 89009E   19304.83772859 +.00000026 +00000-0 +83190-4 0 0001,2 19789 082.6109 076.3709 0016813 038.3838 321.8447 12.6486166441802,82.6109,0.0016813,12.64861664,76.3709,38.3838,321.8447
19789,COSMOS 1998,LEO,19305.78692266,1 19789U 89009E   19305.78692266  .00000029  00000-0  97900-4 0  3864,2 19789  82.6111  75.7651 0016779  36.3168 323.9060 12.64861664418328,82.6111,0.0016779,12.64861664,75.7651,36.3168,323.906
19789,COSMOS 1998,LEO,19305.86602215,1 19789U 89009E   19305.86602215 +.00000030 +00000-0 +10345-3 0 0001,2 19789 082.6112 075.7146 0016776 036.1532 324.0692 12.6486167941815,82.6112,0.0016776,12.64861679,75.7146,36.1532,324.0692
